GLOBALSTAR M001         
1 25162U 98008A   25129.84487404 -.00000113  00000+0 -12249-3 0  9996
2 25162  52.0031  84.8198 0001249 157.8401 235.7421 12.38213456238966
GLOBALSTAR M004         
1 25163U 98008B   25130.40573497 -.00000054  00000+0  27690-3 0  9998
2 25163  51.9979 169.4140 0003181 204.7939 168.3274 12.63395433257016
GLOBALSTAR M002         
1 25164U 98008C   25129.95582793 -.00000058  00000+0  36612-3 0  9994
2 25164  52.0035 336.0631 0002218  83.1689 276.9383 11.61509789179692
GLOBALSTAR M003         
1 25165U 98008D   25129.43750943 -.00000119  00000+0 -31953-3 0  9994
2 25165  52.0000 275.8427 0007893 210.7367 184.6978 12.12076344228528
GLOBALSTAR M014         
1 25306U 98023A   25130.47972209 -.00000085  00000+0 -13561-3 0  9992
2 25306  51.9835 258.7666 0000485 252.8241 195.2545 11.65480412186761
GLOBALSTAR M006         
1 25307U 98023B   25130.00959418 -.00000053  00000+0  47421-3 0  9995
2 25307  51.9951 311.0018 0003676  47.7085 128.0249 11.58174843212515
GLOBALSTAR M015         
1 25308U 98023C   25130.22837366 -.00000069  00000+0  10107-3 0  9995
2 25308  51.9842  47.1844 0012923   9.6759 159.4105 11.48859300190093
GLOBALSTAR M008         
1 25309U 98023D   25129.66600447 -.00000098  00000+0 -13414-4 0  9998
2 25309  51.9980 309.7379 0003420  96.8667 341.7516 12.36068442233081
